start=new Date('2022-06-19T00:00:00.000Z').valueOf();
sats=[{"INCLINATION":"53.0549","COUNTRY_CODE":"US","EPOCH":"2022-06-15T11:05:29.848128","OBJECT_NAME":"STARLINK-1179","ELEMENT_SET_NO":"999","MEAN_ANOMALY":"295.0820","ARG_OF_PERICENTER":"65.0308","OBJECT_TYPE":"PAYLOAD","DECAY_DATE":null,"FILE":"3496794","EPHEMERIS_TYPE":"0","REV_AT_EPOCH":"13155","REF_FRAME":"TEME","TLE_LINE1":"1 45085U 20006AT  22166.46215102 -.00002908  00000-0 -17647-3 0  9997","RCS_SIZE":"LARGE","GP_ID":"206204947","MEAN_MOTION_DDOT":"0.0000000000000","ECCENTRICITY":"0.00013410","OBJECT_ID":"2020-006AT","LAUNCH_DATE":"2020-01-29","PERIOD":"95.593","TIME_SYSTEM":"UTC","CLASSIFICATION_TYPE":"U","BSTAR":"-0.00017647000000","MEAN_MOTION":"15.06389053","APOAPSIS":"548.176","CENTER_NAME":"EARTH","MEAN_ELEMENT_THEORY":"SGP4","TLE_LINE2":"2 45085  53.0549 246.3800 0001341  65.0308 295.0820 15.06389053131555","SITE":"AFETR","NORAD_CAT_ID":"45085","RA_OF_ASC_NODE":"246.3800","MEAN_MOTION_DOT":"-0.00002908","SEMIMAJOR_AXIS":"6925.382","PERIAPSIS":"546.318"},{"ARG_OF_PERICENTER":"14.6378","MEAN_ANOMALY":"345.4659","ELEMENT_SET_NO":"999","OBJECT_NAME":"STARLINK-1181","EPOCH":"2022-06-15T22:07:27.499584","COUNTRY_CODE":"US","INCLINATION":"52.9977","TLE_LINE1":"1 45086U 20006AU  22166.92184606  .00029693  00000-0  15647-2 0  9998","REF_FRAME":"TEME","REV_AT_EPOCH":"13164","FILE":"3497002","EPHEMERIS_TYPE":"0","DECAY_DATE":null,"OBJECT_TYPE":"PAYLOAD","MEAN_MOTION":"15.15372110","BSTAR":"0.00156470000000","CLASSIFICATION_TYPE":"U","TIME_SYSTEM":"UTC","LAUNCH_DATE":"2020-01-29","PERIOD":"95.026","OBJECT_ID":"2020-006AU","ECCENTRICITY":"0.00015660","RCS_SIZE":"LARGE","GP_ID":"206286136","MEAN_MOTION_DDOT":"0.0000000000000","PERIAPSIS":"518.771","SEMIMAJOR_AXIS":"6897.986","MEAN_MOTION_DOT":"0.00029693","RA_OF_ASC_NODE":"234.3260","NORAD_CAT_ID":"45086","SITE":"AFETR","TLE_LINE2":"2 45086  52.9977 234.3260 0001566  14.6378 345.4659 15.15372110131648","MEAN_ELEMENT_THEORY":"SGP4","CENTER_NAME":"EARTH","APOAPSIS":"520.931"},{"TLE_LINE1":"1 45087U 20006AV  22166.91182629 -.00000672  00000-0 -26207-4 0  9995","REF_FRAME":"TEME","REV_AT_EPOCH":"13162","DECAY_DATE":null,"FILE":"3497002","EPHEMERIS_TYPE":"0","OBJECT_TYPE":"PAYLOAD","ARG_OF_PERICENTER":"81.4167","MEAN_ANOMALY":"278.6979","ELEMENT_SET_NO":"999","EPOCH":"2022-06-15T21:53:01.791456","OBJECT_NAME":"STARLINK-1185","COUNTRY_CODE":"US","INCLINATION":"53.0552","PERIAPSIS":"546.259","SEMIMAJOR_AXIS":"6925.357","MEAN_MOTION_DOT":"-0.00000672","RA_OF_ASC_NODE":"244.3597","NORAD_CAT_ID":"45087","SITE":"AFETR","TLE_LINE2":"2 45087  53.0552 244.3597 0001390  81.4167 278.6979 15.06397330131628","APOAPSIS":"548.184","MEAN_ELEMENT_THEORY":"SGP4","CENTER_NAME":"EARTH","MEAN_MOTION":"15.06397330","CLASSIFICATION_TYPE":"U","BSTAR":"-0.00002620700000","TIME_SYSTEM":"UTC","PERIOD":"95.592","LAUNCH_DATE":"2020-01-29","OBJECT_ID":"2020-006AV","ECCENTRICITY":"0.00013900","MEAN_MOTION_DDOT":"0.0000000000000","GP_ID":"206286884","RCS_SIZE":"LARGE"},{"OBJECT_NAME":"STARLINK-1183","EPOCH":"2022-06-15T22:24:51.619392","COUNTRY_CODE":"US","INCLINATION":"53.0532","ARG_OF_PERICENTER":"69.4628","MEAN_ANOMALY":"290.6525","ELEMENT_SET_NO":"999","REV_AT_EPOCH":"13162","DECAY_DATE":null,"EPHEMERIS_TYPE":"0","FILE":"3497002","OBJECT_TYPE":"PAYLOAD","TLE_LINE1":"1 45088U 20006AW  22166.93393078  .00000265  00000-0  36672-4 0  9993","REF_FRAME":"TEME","OBJECT_ID":"2020-006AW","ECCENTRICITY":"0.00015210","RCS_SIZE":"LARGE","GP_ID":"206285639","MEAN_MOTION_DDOT":"0.0000000000000","MEAN_MOTION":"15.06402585","BSTAR":"0.00003667200000","CLASSIFICATION_TYPE":"U","TIME_SYSTEM":"UTC","LAUNCH_DATE":"2020-01-29","PERIOD":"95.592","SITE":"AFETR","NORAD_CAT_ID":"45088","TLE_LINE2":"2 45088  53.0532 244.2652 0001521  69.4628 290.6525 15.06402585131622","APOAPSIS":"548.259","MEAN_ELEMENT_THEORY":"SGP4","CENTER_NAME":"EARTH","PERIAPSIS":"546.152","SEMIMAJOR_AXIS":"6925.341","MEAN_MOTION_DOT":"0.00000265","RA_OF_ASC_NODE":"244.2652"},{"OBJECT_NAME":"STARLINK-1136","EPOCH":"2022-06-16T00:11:03.442272","COUNTRY_CODE":"US","INCLINATION":"53.0538","ARG_OF_PERICENTER":"62.0975","MEAN_ANOMALY":"298.0171","ELEMENT_SET_NO":"999","REV_AT_EPOCH":"13164","FILE":"3497002","EPHEMERIS_TYPE":"0","DECAY_DATE":null,"OBJECT_TYPE":"PAYLOAD","TLE_LINE1":"1 45089U 20006AX  22167.00767873 -.00000132  00000-0  10008-4 0  9990","REF_FRAME":"TEME","OBJECT_ID":"2020-006AX","ECCENTRICITY":"0.00015570","GP_ID":"206285388","MEAN_MOTION_DDOT":"0.0000000000000","RCS_SIZE":"LARGE","MEAN_MOTION":"15.06396361","BSTAR":"0.00001000800000","CLASSIFICATION_TYPE":"U","TIME_SYSTEM":"UTC","LAUNCH_DATE":"2020-01-29","PERIOD":"95.592","NORAD_CAT_ID":"45089","SITE":"AFETR","TLE_LINE2":"2 45089  53.0538 244.0255 0001557  62.0975 298.0171 15.06396361131644","MEAN_ELEMENT_THEORY":"SGP4","CENTER_NAME":"EARTH","APOAPSIS":"548.303","PERIAPSIS":"546.146","SEMIMAJOR_AXIS":"6925.360","MEAN_MOTION_DOT":"-0.00000132","RA_OF_ASC_NODE":"244.0255"},{"APOAPSIS":"548.223","CENTER_NAME":"EARTH","MEAN_ELEMENT_THEORY":"SGP4","TLE_LINE2":"2 45090  53.0548 246.4153 0001403  81.5103 278.6045 15.06387603131552","SITE":"AFETR","NORAD_CAT_ID":"45090","RA_OF_ASC_NODE":"246.4153","MEAN_MOTION_DOT":"-0.00001123","SEMIMAJOR_AXIS":"6925.387","PERIAPSIS":"546.280","GP_ID":"206205195","RCS_SIZE":"LARGE","MEAN_MOTION_DDOT":"0.0000000000000","ECCENTRICITY":"0.00014030","OBJECT_ID":"2020-006AY","LAUNCH_DATE":"2020-01-29","PERIOD":"95.593","TIME_SYSTEM":"UTC","BSTAR":"-0.00005651600000","CLASSIFICATION_TYPE":"U","MEAN_MOTION":"15.06387603","OBJECT_TYPE":"PAYLOAD","DECAY_DATE":null,"FILE":"3496794","EPHEMERIS_TYPE":"0","REV_AT_EPOCH":"13155","REF_FRAME":"TEME","TLE_LINE1":"1 45090U 20006AY  22166.45383076 -.00001123  00000-0 -56516-4 0  9995","INCLINATION":"53.0548","COUNTRY_CODE":"US","OBJECT_NAME":"STARLINK-1176","EPOCH":"2022-06-15T10:53:30.977664","ELEMENT_SET_NO":"999","MEAN_ANOMALY":"278.6045","ARG_OF_PERICENTER":"81.5103"},{"INCLINATION":"53.0548","COUNTRY_CODE":"US","OBJECT_NAME":"STARLINK-1137","EPOCH":"2022-06-15T11:53:14.979264","ELEMENT_SET_NO":"999","MEAN_ANOMALY":"293.9337","ARG_OF_PERICENTER":"66.1800","OBJECT_TYPE":"PAYLOAD","FILE":"3496794","EPHEMERIS_TYPE":"0","DECAY_DATE":null,"REV_AT_EPOCH":"13155","REF_FRAME":"TEME","TLE_LINE1":"1 45092U 20006BA  22166.49531226 -.00001447  00000-0 -78286-4 0  9990","GP_ID":"206205940","MEAN_MOTION_DDOT":"0.0000000000000","RCS_SIZE":"LARGE","ECCENTRICITY":"0.00014080","OBJECT_ID":"2020-006BA","LAUNCH_DATE":"2020-01-29","PERIOD":"95.592","TIME_SYSTEM":"UTC","BSTAR":"-0.00007828600000","CLASSIFICATION_TYPE":"U","MEAN_MOTION":"15.06396416","MEAN_ELEMENT_THEORY":"SGP4","CENTER_NAME":"EARTH","APOAPSIS":"548.200","TLE_LINE2":"2 45092  53.0548 246.2491 0001408  66.1800 293.9337 15.06396416131551","SITE":"AFETR","NORAD_CAT_ID":"45092","RA_OF_ASC_NODE":"246.2491","MEAN_MOTION_DOT":"-0.00001447","SEMIMAJOR_AXIS":"6925.360","PERIAPSIS":"546.249"},{"DECAY_DATE":null,"EPHEMERIS_TYPE":"0","FILE":"3496794","OBJECT_TYPE":"PAYLOAD","REV_AT_EPOCH":"13155","REF_FRAME":"TEME","TLE_LINE1":"1 45093U 20006BB  22166.49163289 -.00002557  00000-0 -15291-3 0  9990","COUNTRY_CODE":"US","INCLINATION":"53.0544","EPOCH":"2022-06-15T11:47:57.081696","OBJECT_NAME":"STARLINK-1142","MEAN_ANOMALY":"280.2175","ELEMENT_SET_NO":"999","ARG_OF_PERICENTER":"79.8978","TLE_LINE2":"2 45093  53.0544 246.2600 0001451  79.8978 280.2175 15.06387089131550","APOAPSIS":"548.258","CENTER_NAME":"EARTH","MEAN_ELEMENT_THEORY":"SGP4","SITE":"AFETR","NORAD_CAT_ID":"45093","MEAN_MOTION_DOT":"-0.00002557","RA_OF_ASC_NODE":"246.2600","PERIAPSIS":"546.248","SEMIMAJOR_AXIS":"6925.388","ECCENTRICITY":"0.00014510","GP_ID":"206205687","RCS_SIZE":"LARGE","MEAN_MOTION_DDOT":"0.0000000000000","OBJECT_ID":"2020-006BB","TIME_SYSTEM":"UTC","PERIOD":"95.593","LAUNCH_DATE":"2020-01-29","MEAN_MOTION":"15.06387089","CLASSIFICATION_TYPE":"U","BSTAR":"-0.00015291000000"},{"MEAN_MOTION_DOT":"-0.00000619","RA_OF_ASC_NODE":"246.1822","PERIAPSIS":"546.212","SEMIMAJOR_AXIS":"6925.380","TLE_LINE2":"2 45094  53.0547 246.1822 0001491  75.9693 284.1462 15.06389903131564","APOAPSIS":"548.277","MEAN_ELEMENT_THEORY":"SGP4","CENTER_NAME":"EARTH","SITE":"AFETR","NORAD_CAT_ID":"45094","TIME_SYSTEM":"UTC","LAUNCH_DATE":"2020-01-29","PERIOD":"95.593","MEAN_MOTION":"15.06389903","CLASSIFICATION_TYPE":"U","BSTAR":"-0.00002269600000","ECCENTRICITY":"0.00014910","GP_ID":"206204948","MEAN_MOTION_DDOT":"0.0000000000000","RCS_SIZE":"LARGE","OBJECT_ID":"2020-006BC","REF_FRAME":"TEME","TLE_LINE1":"1 45094U 20006BC  22166.50542691 -.00000619  00000-0 -22696-4 0  9996","DECAY_DATE":null,"FILE":"3496794","EPHEMERIS_TYPE":"0","OBJECT_TYPE":"PAYLOAD","REV_AT_EPOCH":"13156","MEAN_ANOMALY":"284.1462","ELEMENT_SET_NO":"999","ARG_OF_PERICENTER":"75.9693","COUNTRY_CODE":"US","INCLINATION":"53.0547","EPOCH":"2022-06-15T12:07:48.885024","OBJECT_NAME":"STARLINK-1146"},{"MEAN_MOTION":"15.06387931","BSTAR":"-0.00025950000000","CLASSIFICATION_TYPE":"U","TIME_SYSTEM":"UTC","PERIOD":"95.593","LAUNCH_DATE":"2020-01-29","OBJECT_ID":"2020-006BD","ECCENTRICITY":"0.00015440","GP_ID":"206286137","RCS_SIZE":"LARGE","MEAN_MOTION_DDOT":"0.0000000000000","PERIAPSIS":"546.181","SEMIMAJOR_AXIS":"6925.386","MEAN_MOTION_DOT":"-0.00004143","RA_OF_ASC_NODE":"244.3736","NORAD_CAT_ID":"45095","SITE":"AFETR","TLE_LINE2":"2 45095  53.0529 244.3736 0001544  56.4619 303.6517 15.06387931131624","CENTER_NAME":"EARTH","MEAN_ELEMENT_THEORY":"SGP4","APOAPSIS":"548.320","ARG_OF_PERICENTER":"56.4619","MEAN_ANOMALY":"303.6517","ELEMENT_SET_NO":"999","OBJECT_NAME":"STARLINK-1147","EPOCH":"2022-06-15T21:46:22.571616","COUNTRY_CODE":"US","INCLINATION":"53.0529","TLE_LINE1":"1 45095U 20006BD  22166.90720569 -.00004143  00000-0 -25950-3 0  9994","REF_FRAME":"TEME","REV_AT_EPOCH":"13162","EPHEMERIS_TYPE":"0","FILE":"3497002","DECAY_DATE":null,"OBJECT_TYPE":"PAYLOAD"}];
